GPS BIIF-8  (PRN 03)    
1 40294U 14068A   25062.26439175 -.00000034  00000+0  00000+0 0  9996
2 40294  56.6404  49.1560 0056017  63.6042 296.9722  2.00576225 75762
GPS BIIF-9  (PRN 26)    
1 40534U 15013A   25062.40496671  .00000052  00000+0  00000+0 0  9993
2 40534  53.2659 223.6566 0097619  34.4902 326.1000  2.00549585 72382
GPS BIIF-10 (PRN 08)    
1 40730U 15033A   25062.06683810 -.00000003  00000+0  00000+0 0  9995
2 40730  54.3686 286.4654 0104255  23.5751 336.9480  2.00553531 70546
GPS BIIF-11 (PRN 10)    
1 41019U 15062A   25062.12347042 -.00000033  00000+0  00000+0 0  9992
2 41019  56.6180  49.0173 0103028 228.4632 130.6527  2.00566565 68382
GPS BIIF-12 (PRN 32)    
1 41328U 16007A   25062.20999226  .00000016  00000+0  00000+0 0  9991
2 41328  55.2439 108.1557 0086702 241.2209 117.9808  2.00574622 66394
GPS BIII-1  (PRN 04)    
1 43873U 18109A   25062.37243255  .00000015  00000+0  00000+0 0  9994
2 43873  55.4098 110.7809 0033138 196.8959 175.1044  2.00565445 45630
GPS BIII-2  (PRN 18)    
1 44506U 19056A   25062.23019506 -.00000086  00000+0  00000+0 0  9994
2 44506  55.8083 349.8320 0048967 194.2314 337.5376  2.00560176 40619
GPS BIII-3  (PRN 23)    
1 45854U 20041A   25062.31219891 -.00000037  00000+0  00000+0 0  9991
2 45854  56.3377  47.2716 0051040 199.6750 333.1802  2.00568008 34593
GPS BIII-4  (PRN 14)    
1 46826U 20078A   25062.37099551  .00000054  00000+0  00000+0 0  9994
2 46826  54.0932 229.8783 0054774 198.7180 347.7995  2.00558620 32064
GPS BIII-5  (PRN 11)    
1 48859U 21054A   25062.60816706 -.00000089  00000+0  00000+0 0  9991
2 48859  55.3389 351.3480 0018844 231.0047 315.1441  2.00569832 27312
GPS BIII-6  (PRN 28)    
1 55268U 23009A   25055.80589204  .00000001  00000+0  00000+0 0  9992
2 55268  55.0899 167.2640 0000971  39.5557 308.9006  2.00545614 15662
GPS BIII-7  (PRN 01)    
1 62339U 24242A   25059.35778491 -.00000079  00000+0  00000+0 0  9997
2 62339  54.9923 353.3668 0004649 316.4793 162.7363  2.00556138  1758
