[
    {
        "OBJECT_NAME": "NAVSTAR 72 (USA 258)",
        "OBJECT_ID": "2014-068A",
        "EPOCH": "2025-03-03T06:20:43.447200",
        "MEAN_MOTION": 2.00576225,
        "ECCENTRICITY": 0.0056017,
        "INCLINATION": 56.6404,
        "RA_OF_ASC_NODE": 49.156,
        "ARG_OF_PERICENTER": 63.6042,
        "MEAN_ANOMALY": 296.9722,
        "EPHEMERIS_TYPE": 0,
        "CLASSIFICATION_TYPE": "U",
        "NORAD_CAT_ID": 40294,
        "ELEMENT_SET_NO": 999,
        "REV_AT_EPOCH": 7576,
        "BSTAR": 0,
        "MEAN_MOTION_DOT": -3.4e-07,
        "MEAN_MOTION_DDOT": 0
    },
    {
        "OBJECT_NAME": "NAVSTAR 73 (USA 260)",
        "OBJECT_ID": "2015-013A",
        "EPOCH": "2025-03-03T09:43:09.123744",
        "MEAN_MOTION": 2.00549585,
        "ECCENTRICITY": 0.0097619,
        "INCLINATION": 53.2659,
        "RA_OF_ASC_NODE": 223.6566,
        "ARG_OF_PERICENTER": 34.4902,
        "MEAN_ANOMALY": 326.1,
        "EPHEMERIS_TYPE": 0,
        "CLASSIFICATION_TYPE": "U",
        "NORAD_CAT_ID": 40534,
        "ELEMENT_SET_NO": 999,
        "REV_AT_EPOCH": 7238,
        "BSTAR": 0,
        "MEAN_MOTION_DOT": 5.2e-07,
        "MEAN_MOTION_DDOT": 0
    },
    {
        "OBJECT_NAME": "NAVSTAR 74 (USA 262)",
        "OBJECT_ID": "2015-033A",
        "EPOCH": "2025-03-03T01:36:14.811840",
        "MEAN_MOTION": 2.00553531,
        "ECCENTRICITY": 0.0104255,
        "INCLINATION": 54.3686,
        "RA_OF_ASC_NODE": 286.4654,
        "ARG_OF_PERICENTER": 23.5751,
        "MEAN_ANOMALY": 336.948,
        "EPHEMERIS_TYPE": 0,
        "CLASSIFICATION_TYPE": "U",
        "NORAD_CAT_ID": 40730,
        "ELEMENT_SET_NO": 999,
        "REV_AT_EPOCH": 7054,
        "BSTAR": 0,
        "MEAN_MOTION_DOT": -3e-08,
        "MEAN_MOTION_DDOT": 0
    },
    {
        "OBJECT_NAME": "NAVSTAR 75 (USA 265)",
        "OBJECT_ID": "2015-062A",
        "EPOCH": "2025-03-03T02:57:47.844288",
        "MEAN_MOTION": 2.00566565,
        "ECCENTRICITY": 0.0103028,
        "INCLINATION": 56.618,
        "RA_OF_ASC_NODE": 49.0173,
        "ARG_OF_PERICENTER": 228.4632,
        "MEAN_ANOMALY": 130.6527,
        "EPHEMERIS_TYPE": 0,
        "CLASSIFICATION_TYPE": "U",
        "NORAD_CAT_ID": 41019,
        "ELEMENT_SET_NO": 999,
        "REV_AT_EPOCH": 6838,
        "BSTAR": 0,
        "MEAN_MOTION_DOT": -3.3e-07,
        "MEAN_MOTION_DDOT": 0
    },
    {
        "OBJECT_NAME": "NAVSTAR 76 (USA 266)",
        "OBJECT_ID": "2016-007A",
        "EPOCH": "2025-03-03T05:02:23.331264",
        "MEAN_MOTION": 2.00574622,
        "ECCENTRICITY": 0.0086702,
        "INCLINATION": 55.2439,
        "RA_OF_ASC_NODE": 108.1557,
        "ARG_OF_PERICENTER": 241.2209,
        "MEAN_ANOMALY": 117.9808,
        "EPHEMERIS_TYPE": 0,
        "CLASSIFICATION_TYPE": "U",
        "NORAD_CAT_ID": 41328,
        "ELEMENT_SET_NO": 999,
        "REV_AT_EPOCH": 6639,
        "BSTAR": 0,
        "MEAN_MOTION_DOT": 1.6e-07,
        "MEAN_MOTION_DDOT": 0
    },
    {
        "OBJECT_NAME": "NAVSTAR 77 (USA 289)",
        "OBJECT_ID": "2018-109A",
        "EPOCH": "2025-03-03T08:56:18.172320",
        "MEAN_MOTION": 2.00565445,
        "ECCENTRICITY": 0.0033138,
        "INCLINATION": 55.4098,
        "RA_OF_ASC_NODE": 110.7809,
        "ARG_OF_PERICENTER": 196.8959,
        "MEAN_ANOMALY": 175.1044,
        "EPHEMERIS_TYPE": 0,
        "CLASSIFICATION_TYPE": "U",
        "NORAD_CAT_ID": 43873,
        "ELEMENT_SET_NO": 999,
        "REV_AT_EPOCH": 4563,
        "BSTAR": 0,
        "MEAN_MOTION_DOT": 1.5e-07,
        "MEAN_MOTION_DDOT": 0
    },
    {
        "OBJECT_NAME": "NAVSTAR 78 (USA 293)",
        "OBJECT_ID": "2019-056A",
        "EPOCH": "2025-03-03T05:31:28.853184",
        "MEAN_MOTION": 2.00560176,
        "ECCENTRICITY": 0.0048967,
        "INCLINATION": 55.8083,
        "RA_OF_ASC_NODE": 349.832,
        "ARG_OF_PERICENTER": 194.2314,
        "MEAN_ANOMALY": 337.5376,
        "EPHEMERIS_TYPE": 0,
        "CLASSIFICATION_TYPE": "U",
        "NORAD_CAT_ID": 44506,
        "ELEMENT_SET_NO": 999,
        "REV_AT_EPOCH": 4061,
        "BSTAR": 0,
        "MEAN_MOTION_DOT": -8.6e-07,
        "MEAN_MOTION_DDOT": 0
    },
    {
        "OBJECT_NAME": "NAVSTAR 79 (USA 304)",
        "OBJECT_ID": "2020-041A",
        "EPOCH": "2025-03-03T07:29:33.985824",
        "MEAN_MOTION": 2.00568008,
        "ECCENTRICITY": 0.005104,
        "INCLINATION": 56.3377,
        "RA_OF_ASC_NODE": 47.2716,
        "ARG_OF_PERICENTER": 199.675,
        "MEAN_ANOMALY": 333.1802,
        "EPHEMERIS_TYPE": 0,
        "CLASSIFICATION_TYPE": "U",
        "NORAD_CAT_ID": 45854,
        "ELEMENT_SET_NO": 999,
        "REV_AT_EPOCH": 3459,
        "BSTAR": 0,
        "MEAN_MOTION_DOT": -3.7e-07,
        "MEAN_MOTION_DDOT": 0
    },
    {
        "OBJECT_NAME": "NAVSTAR 80 (USA 309)",
        "OBJECT_ID": "2020-078A",
        "EPOCH": "2025-03-03T08:54:14.012064",
        "MEAN_MOTION": 2.0055862,
        "ECCENTRICITY": 0.0054774,
        "INCLINATION": 54.0932,
        "RA_OF_ASC_NODE": 229.8783,
        "ARG_OF_PERICENTER": 198.718,
        "MEAN_ANOMALY": 347.7995,
        "EPHEMERIS_TYPE": 0,
        "CLASSIFICATION_TYPE": "U",
        "NORAD_CAT_ID": 46826,
        "ELEMENT_SET_NO": 999,
        "REV_AT_EPOCH": 3206,
        "BSTAR": 0,
        "MEAN_MOTION_DOT": 5.4e-07,
        "MEAN_MOTION_DDOT": 0
    },
    {
        "OBJECT_NAME": "NAVSTAR 81 (USA 319)",
        "OBJECT_ID": "2021-054A",
        "EPOCH": "2025-03-03T14:35:45.633984",
        "MEAN_MOTION": 2.00569832,
        "ECCENTRICITY": 0.0018844,
        "INCLINATION": 55.3389,
        "RA_OF_ASC_NODE": 351.348,
        "ARG_OF_PERICENTER": 231.0047,
        "MEAN_ANOMALY": 315.1441,
        "EPHEMERIS_TYPE": 0,
        "CLASSIFICATION_TYPE": "U",
        "NORAD_CAT_ID": 48859,
        "ELEMENT_SET_NO": 999,
        "REV_AT_EPOCH": 2731,
        "BSTAR": 0,
        "MEAN_MOTION_DOT": -8.9e-07,
        "MEAN_MOTION_DDOT": 0
    },
    {
        "OBJECT_NAME": "NAVSTAR 82 (USA 343)",
        "OBJECT_ID": "2023-009A",
        "EPOCH": "2025-02-24T19:20:29.072256",
        "MEAN_MOTION": 2.00545614,
        "ECCENTRICITY": 9.71e-05,
        "INCLINATION": 55.0899,
        "RA_OF_ASC_NODE": 167.264,
        "ARG_OF_PERICENTER": 39.5557,
        "MEAN_ANOMALY": 308.9006,
        "EPHEMERIS_TYPE": 0,
        "CLASSIFICATION_TYPE": "U",
        "NORAD_CAT_ID": 55268,
        "ELEMENT_SET_NO": 999,
        "REV_AT_EPOCH": 1566,
        "BSTAR": 0,
        "MEAN_MOTION_DOT": 1e-08,
        "MEAN_MOTION_DDOT": 0
    },
    {
        "OBJECT_NAME": "NAVSTAR 83 (USA 440)",
        "OBJECT_ID": "2024-242A",
        "EPOCH": "2025-02-28T08:35:12.616224",
        "MEAN_MOTION": 2.00556138,
        "ECCENTRICITY": 0.0004649,
        "INCLINATION": 54.9923,
        "RA_OF_ASC_NODE": 353.3668,
        "ARG_OF_PERICENTER": 316.4793,
        "MEAN_ANOMALY": 162.7363,
        "EPHEMERIS_TYPE": 0,
        "CLASSIFICATION_TYPE": "U",
        "NORAD_CAT_ID": 62339,
        "ELEMENT_SET_NO": 999,
        "REV_AT_EPOCH": 175,
        "BSTAR": 0,
        "MEAN_MOTION_DOT": -7.9e-07,
        "MEAN_MOTION_DDOT": 0
    }
]